GLOBALSTAR M024         
1 25883U 99043A   25044.94616994 -.00000091  00000+0 -92212-3 0  9994
2 25883  52.0034 298.7020 0000687 262.9876 215.6162 11.10165531101178
GLOBALSTAR M027         
1 25884U 99043B   25044.58450730 -.00000101  00000+0 -14051-2 0  9995
2 25884  52.0248  13.9918 0021340 151.4009 208.7959 11.04370509127584
GLOBALSTAR M054         
1 25885U 99043C   25044.57322475 -.00000115  00000+0 -11138-2 0  9997
2 25885  52.0126 162.0625 0005018 328.6780  44.0804 11.39215576104966
GLOBALSTAR M053         
1 25886U 99043D   25044.40551755 -.00000033  00000+0  10266-2 0  9994
2 25886  51.9977 102.6913 0003510 220.4660 152.5132 11.27663017105481
GLOBALSTAR M058         
1 25907U 99049A   25044.57980239 -.00000005  00000+0  10753-2 0  9995
2 25907  51.9938  79.2381 0001891  48.1958 311.9038 11.93198627526784
GLOBALSTAR M050         
1 25908U 99049B   25044.55952538  .00000042  00000+0  14662-2 0  9998
2 25908  51.9987  96.2044 0009650 144.9143   3.1378 12.07449040133253
GLOBALSTAR M033         
1 25909U 99049C   25044.91226723 -.00000155  00000+0 -61080-3 0  9993
2 25909  51.9940 335.5836 0013629  11.4022 348.7132 12.20288237520694
GLOBALSTAR M055         
1 25910U 99049D   25044.92377520 -.00000067  00000+0  23311-3 0  9994
2 25910  52.0048 352.2998 0006604 235.9183 124.1042 12.29420696153120
